CCSDS_OMM_VERS = 2.0
CREATION_DATE  = 
ORIGINATOR     = 

OBJECT_NAME    = STARLINK-36805
OBJECT_ID      = 2026-044R
CENTER_NAME    = EARTH
REF_FRAME      = TEME
TIME_SYSTEM    = UTC
MEAN_ELEMENT_THEORY = SGP/SGP4

EPOCH          = 2026-03-21T04:00:00.999936
MEAN_MOTION    = 15.79077203
ECCENTRICITY   = .00017024
INCLINATION    = 97.2841
RA_OF_ASC_NODE = 40.8931
ARG_OF_PERICENTER = 99.0388
MEAN_ANOMALY   = 64.5196

EPHEMERIS_TYPE = 0
CLASSIFICATION_TYPE = U
NORAD_CAT_ID   = 68116
ELEMENT_SET_NO = 999
REV_AT_EPOCH   = 324
BSTAR          = -.12340263E-1
MEAN_MOTION_DOT = -.1906888E-1
MEAN_MOTION_DDOT = 0

CCSDS_OMM_VERS = 2.0
CREATION_DATE  = 
ORIGINATOR     = 

OBJECT_NAME    = STARLINK-36844
OBJECT_ID      = 2026-044S
CENTER_NAME    = EARTH
REF_FRAME      = TEME
TIME_SYSTEM    = UTC
MEAN_ELEMENT_THEORY = SGP/SGP4

EPOCH          = 2026-03-21T04:00:00.999936
MEAN_MOTION    = 15.79849447
ECCENTRICITY   = .00014978
INCLINATION    = 97.2842
RA_OF_ASC_NODE = 40.8948
ARG_OF_PERICENTER = 88.8958
MEAN_ANOMALY   = 79.8263

EPHEMERIS_TYPE = 0
CLASSIFICATION_TYPE = U
NORAD_CAT_ID   = 68117
ELEMENT_SET_NO = 999
REV_AT_EPOCH   = 319
BSTAR          = -.12000926E-1
MEAN_MOTION_DOT = -.191898E-1
MEAN_MOTION_DDOT = 0

CCSDS_OMM_VERS = 2.0
CREATION_DATE  = 
ORIGINATOR     = 

OBJECT_NAME    = STARLINK-36789
OBJECT_ID      = 2026-044T
CENTER_NAME    = EARTH
REF_FRAME      = TEME
TIME_SYSTEM    = UTC
MEAN_ELEMENT_THEORY = SGP/SGP4

EPOCH          = 2026-03-21T04:00:00.999936
MEAN_MOTION    = 15.79370117
ECCENTRICITY   = .00016137
INCLINATION    = 97.2842
RA_OF_ASC_NODE = 40.8967
ARG_OF_PERICENTER = 90.6382
MEAN_ANOMALY   = 81.8776

EPHEMERIS_TYPE = 0
CLASSIFICATION_TYPE = U
NORAD_CAT_ID   = 68118
ELEMENT_SET_NO = 999
REV_AT_EPOCH   = 319
BSTAR          = -.121198E-1
MEAN_MOTION_DOT = -.1899052E-1
MEAN_MOTION_DDOT = 0

CCSDS_OMM_VERS = 2.0
CREATION_DATE  = 
ORIGINATOR     = 

OBJECT_NAME    = STARLINK-36850
OBJECT_ID      = 2026-044U
CENTER_NAME    = EARTH
REF_FRAME      = TEME
TIME_SYSTEM    = UTC
MEAN_ELEMENT_THEORY = SGP/SGP4

EPOCH          = 2026-03-21T04:00:00.999936
MEAN_MOTION    = 15.78901391
ECCENTRICITY   = .00017536
INCLINATION    = 97.2844
RA_OF_ASC_NODE = 40.8982
ARG_OF_PERICENTER = 83.0229
MEAN_ANOMALY   = 93.0955

EPHEMERIS_TYPE = 0
CLASSIFICATION_TYPE = U
NORAD_CAT_ID   = 68119
ELEMENT_SET_NO = 999
REV_AT_EPOCH   = 319
BSTAR          = -.12382108E-1
MEAN_MOTION_DOT = -.1899309E-1
MEAN_MOTION_DDOT = 0

CCSDS_OMM_VERS = 2.0
CREATION_DATE  = 
ORIGINATOR     = 

OBJECT_NAME    = STARLINK-36868
OBJECT_ID      = 2026-044V
CENTER_NAME    = EARTH
REF_FRAME      = TEME
TIME_SYSTEM    = UTC
MEAN_ELEMENT_THEORY = SGP/SGP4

EPOCH          = 2026-03-21T04:00:00.999936
MEAN_MOTION    = 15.79663808
ECCENTRICITY   = .00016994
INCLINATION    = 97.2845
RA_OF_ASC_NODE = 40.9005
ARG_OF_PERICENTER = 89.4909
MEAN_ANOMALY   = 91.9120

EPHEMERIS_TYPE = 0
CLASSIFICATION_TYPE = U
NORAD_CAT_ID   = 68120
ELEMENT_SET_NO = 999
REV_AT_EPOCH   = 319
BSTAR          = -.11964351E-1
MEAN_MOTION_DOT = -.1899984E-1
MEAN_MOTION_DDOT = 0

CCSDS_OMM_VERS = 2.0
CREATION_DATE  = 
ORIGINATOR     = 

OBJECT_NAME    = STARLINK-36855
OBJECT_ID      = 2026-044W
CENTER_NAME    = EARTH
REF_FRAME      = TEME
TIME_SYSTEM    = UTC
MEAN_ELEMENT_THEORY = SGP/SGP4

EPOCH          = 2026-03-21T04:00:00.999936
MEAN_MOTION    = 15.79602760
ECCENTRICITY   = .00017443
INCLINATION    = 97.2845
RA_OF_ASC_NODE = 40.9026
ARG_OF_PERICENTER = 96.0804
MEAN_ANOMALY   = 89.5393

EPHEMERIS_TYPE = 0
CLASSIFICATION_TYPE = U
NORAD_CAT_ID   = 68121
ELEMENT_SET_NO = 999
REV_AT_EPOCH   = 319
BSTAR          = -.1193708E-1
MEAN_MOTION_DOT = -.1891647E-1
MEAN_MOTION_DDOT = 0

CCSDS_OMM_VERS = 2.0
CREATION_DATE  = 
ORIGINATOR     = 

OBJECT_NAME    = STARLINK-36366
OBJECT_ID      = 2026-044X
CENTER_NAME    = EARTH
REF_FRAME      = TEME
TIME_SYSTEM    = UTC
MEAN_ELEMENT_THEORY = SGP/SGP4

EPOCH          = 2026-03-21T04:00:00.999936
MEAN_MOTION    = 15.79131011
ECCENTRICITY   = .00016526
INCLINATION    = 97.2835
RA_OF_ASC_NODE = 40.9038
ARG_OF_PERICENTER = 91.0264
MEAN_ANOMALY   = 98.2909

EPHEMERIS_TYPE = 0
CLASSIFICATION_TYPE = U
NORAD_CAT_ID   = 68122
ELEMENT_SET_NO = 999
REV_AT_EPOCH   = 324
BSTAR          = -.12129439E-1
MEAN_MOTION_DOT = -.1882448E-1
MEAN_MOTION_DDOT = 0

CCSDS_OMM_VERS = 2.0
CREATION_DATE  = 
ORIGINATOR     = 

OBJECT_NAME    = STARLINK-36922
OBJECT_ID      = 2026-044Y
CENTER_NAME    = EARTH
REF_FRAME      = TEME
TIME_SYSTEM    = UTC
MEAN_ELEMENT_THEORY = SGP/SGP4

EPOCH          = 2026-03-21T04:00:00.999936
MEAN_MOTION    = 15.80316530
ECCENTRICITY   = .00017812
INCLINATION    = 97.2838
RA_OF_ASC_NODE = 40.9079
ARG_OF_PERICENTER = 91.2891
MEAN_ANOMALY   = 107.6094

EPHEMERIS_TYPE = 0
CLASSIFICATION_TYPE = U
NORAD_CAT_ID   = 68123
ELEMENT_SET_NO = 999
REV_AT_EPOCH   = 324
BSTAR          = -.12092985E-1
MEAN_MOTION_DOT = -.196834E-1
MEAN_MOTION_DDOT = 0

CCSDS_OMM_VERS = 2.0
CREATION_DATE  = 
ORIGINATOR     = 

OBJECT_NAME    = STARLINK-36938
OBJECT_ID      = 2026-044Z
CENTER_NAME    = EARTH
REF_FRAME      = TEME
TIME_SYSTEM    = UTC
MEAN_ELEMENT_THEORY = SGP/SGP4

EPOCH          = 2026-03-21T04:00:00.999936
MEAN_MOTION    = 15.80873356
ECCENTRICITY   = .00013407
INCLINATION    = 97.2837
RA_OF_ASC_NODE = 40.9098
ARG_OF_PERICENTER = 95.4843
MEAN_ANOMALY   = 107.7862

EPHEMERIS_TYPE = 0
CLASSIFICATION_TYPE = U
NORAD_CAT_ID   = 68124
ELEMENT_SET_NO = 999
REV_AT_EPOCH   = 324
BSTAR          = -.37067926E-3
MEAN_MOTION_DOT = -.70757E-3
MEAN_MOTION_DDOT = 0

CCSDS_OMM_VERS = 2.0
CREATION_DATE  = 
ORIGINATOR     = 

OBJECT_NAME    = STARLINK-36839
OBJECT_ID      = 2026-044AA
CENTER_NAME    = EARTH
REF_FRAME      = TEME
TIME_SYSTEM    = UTC
MEAN_ELEMENT_THEORY = SGP/SGP4

EPOCH          = 2026-03-21T04:00:00.999936
MEAN_MOTION    = 15.79929412
ECCENTRICITY   = .00016198
INCLINATION    = 97.2838
RA_OF_ASC_NODE = 40.9064
ARG_OF_PERICENTER = 91.0908
MEAN_ANOMALY   = 103.3261

EPHEMERIS_TYPE = 0
CLASSIFICATION_TYPE = U
NORAD_CAT_ID   = 68125
ELEMENT_SET_NO = 999
REV_AT_EPOCH   = 319
BSTAR          = -.1198832E-1
MEAN_MOTION_DOT = -.1923471E-1
MEAN_MOTION_DDOT = 0

CCSDS_OMM_VERS = 2.0
CREATION_DATE  = 
ORIGINATOR     = 

OBJECT_NAME    = ECHOSTAR 25
OBJECT_ID      = 2026-045A
CENTER_NAME    = EARTH
REF_FRAME      = TEME
TIME_SYSTEM    = UTC
MEAN_ELEMENT_THEORY = SGP/SGP4

EPOCH          = 2026-03-19T02:28:16.915584
MEAN_MOTION    = 1.79885153
ECCENTRICITY   = .47494248
INCLINATION    = 10.0329
RA_OF_ASC_NODE = 67.2654
ARG_OF_PERICENTER = 180.7440
MEAN_ANOMALY   = 178.4031

EPHEMERIS_TYPE = 0
CLASSIFICATION_TYPE = U
NORAD_CAT_ID   = 68126
ELEMENT_SET_NO = 999
REV_AT_EPOCH   = 19
BSTAR          = 0
MEAN_MOTION_DOT = -.47E-6
MEAN_MOTION_DDOT = 0

CCSDS_OMM_VERS = 2.0
CREATION_DATE  = 
ORIGINATOR     = 

OBJECT_NAME    = ICOR SV
OBJECT_ID      = 2026-046A
CENTER_NAME    = EARTH
REF_FRAME      = TEME
TIME_SYSTEM    = UTC
MEAN_ELEMENT_THEORY = SGP/SGP4

EPOCH          = 2026-03-13T21:49:43.816224
MEAN_MOTION    = 15.82606913
ECCENTRICITY   = .0140888
INCLINATION    = 123.0797
RA_OF_ASC_NODE = 224.1306
ARG_OF_PERICENTER = 188.2572
MEAN_ANOMALY   = 171.6170

EPHEMERIS_TYPE = 0
CLASSIFICATION_TYPE = U
NORAD_CAT_ID   = 68127
ELEMENT_SET_NO = 999
REV_AT_EPOCH   = 29
BSTAR          = .10434E-2
MEAN_MOTION_DOT = .482503E-2
MEAN_MOTION_DDOT = .92133E-4

