STARLINK-36805          
1 68116U 26044R   26080.16667824 -.01906888  00000+0 -12340-1 0  9996
2 68116  97.2841  40.8931 0001702  99.0388  64.5196 15.79077203  3248
STARLINK-36844          
1 68117U 26044S   26080.16667824 -.01918980  00000+0 -12001-1 0  9997
2 68117  97.2842  40.8948 0001497  88.8958  79.8263 15.79849447  3193
STARLINK-36789          
1 68118U 26044T   26080.16667824 -.01899052  00000+0 -12120-1 0  9998
2 68118  97.2842  40.8967 0001613  90.6382  81.8776 15.79370117  3192
STARLINK-36850          
1 68119U 26044U   26080.16667824 -.01899309  00000+0 -12382-1 0  9994
2 68119  97.2844  40.8982 0001753  83.0229  93.0955 15.78901391  3190
STARLINK-36868          
1 68120U 26044V   26080.16667824 -.01899984  00000+0 -11964-1 0  9990
2 68120  97.2845  40.9005 0001699  89.4909  91.9120 15.79663808  3194
STARLINK-36855          
1 68121U 26044W   26080.16667824 -.01891647  00000+0 -11937-1 0  9999
2 68121  97.2845  40.9026 0001744  96.0804  89.5393 15.79602760  3192
STARLINK-36366          
1 68122U 26044X   26080.16667824 -.01882448  00000+0 -12129-1 0  9993
2 68122  97.2835  40.9038 0001652  91.0264  98.2909 15.79131011  3240
STARLINK-36922          
1 68123U 26044Y   26080.16667824 -.01968340  00000+0 -12093-1 0  9990
2 68123  97.2838  40.9079 0001781  91.2891 107.6094 15.80316530  3243
STARLINK-36938          
1 68124U 26044Z   26080.16667824 -.00070757  00000+0 -37068-3 0  9997
2 68124  97.2837  40.9098 0001340  95.4843 107.7862 15.80873356  3246
STARLINK-36839          
1 68125U 26044AA  26080.16667824 -.01923471  00000+0 -11988-1 0  9990
2 68125  97.2838  40.9064 0001619  91.0908 103.3261 15.79929412  3196
ECHOSTAR 25             
1 68126U 26045A   26078.10297356 -.00000047  00000+0  00000+0 0  9996
2 68126  10.0329  67.2654 4749424 180.7440 178.4031  1.79885153   199
ICOR SV                 
1 68127U 26046A   26072.90953491  .00482503  92133-4  10434-2 0  9997
2 68127 123.0797 224.1306 0140888 188.2572 171.6170 15.82606913   290
